ORBCOMM FM20 [+]        
1 25416U 98046D   24029.04167934  .00001362  00000+0  52473-3 0  9991
2 25416  44.9959  48.8530 0002333 268.5415  91.5165 14.34826418331690
ORBCOMM FM16 [-]        
1 25417U 98046E   24028.92568075  .00002041  00000+0  74902-3 0  9995
2 25417  44.9950  45.8810 0006022 276.5694  83.4468 14.35664279331565
ORBCOMM FM15 [-]        
1 25418U 98046F   24029.07220474  .00001760  00000+0  65596-3 0  9997
2 25418  44.9980  49.0152 0005561 278.0695  81.9521 14.35409047331764
ORBCOMM FM14 [-]        
1 25419U 98046G   24028.43872612  .00001949  00000+0  71930-3 0  9992
2 25419  44.9970  51.2466 0004412 267.9376 232.3236 14.35538136331457
ORBCOMM FM13 [+]        
1 25420U 98046H   24028.47866396  .00001674  00000+0  63246-3 0  9996
2 25420  44.9992  55.3887 0006569 262.4643  97.5458 14.34911477330534
ORBCOMM FM21 [-]        
1 25475U 98053A   24028.42650161  .00001661  00000+0  62844-3 0  9999
2 25475  45.0083 139.8301 0001998 217.5369 142.5338 14.34895721324548
ORBCOMM FM22 [-]        
1 25476U 98053B   24028.43878492  .00001822  00000+0  67865-3 0  9997
2 25476  45.0076 137.4434 0003901 211.5828 148.4785 14.35332549324537
ORBCOMM FM23 [-]        
1 25477U 98053C   24028.38723259  .00001655  00000+0  62618-3 0  9997
2 25477  45.0078 142.4648 0003047 209.1348 150.9329 14.34905729324687
